COSMOS 2419 (714)       
1 28915U 05050A   17137.47698788 -.00000016  00000-0  00000-0 0  9999
2 28915  65.4824  66.8868 0017473 350.0954 291.1072  2.13110270 88674
COSMOS 2425 (716)       
1 29670U 06062A   17137.61646455  .00000006  00000-0  10000-3 0  9994
2 29670  65.4763 305.8923 0021273 351.6983  88.8953  2.13104859 80885
COSMOS 2426 (717)       
1 29671U 06062B   17137.69159770  .00000006  00000-0  10000-3 0  9992
2 29671  65.4962 305.9793 0017579 157.9789 198.8095  2.13102916 80889
COSMOS 2424 (715)       
1 29672U 06062C   17137.53062508  .00000006  00000-0  10000-3 0  9998
2 29672  65.4790 305.9062 0017027 156.3288 252.3336  2.13102159 80886
COSMOS 2433 (720)       
1 32275U 07052A   17137.54008718 -.00000016  00000-0  10000-3 0  9997
2 32275  65.4978  66.6619 0003943 296.4583 277.6758  2.13104618 74391
COSMOS 2432 (719)       
1 32276U 07052B   17137.51252032 -.00000016  00000-0  10000-3 0  9995
2 32276  65.5097  66.7333 0013579 335.3948 170.5343  2.13104058 74392
COSMOS 2434 (721)       
1 32393U 07065A   17137.67444711  .00000005  00000-0  00000-0 0  9996
2 32393  65.0938 305.0531 0006022  99.5384 107.4129  2.13102832 73105
COSMOS 2436 (723)       
1 32395U 07065C   17137.60753910  .00000005  00000-0  10000-3 0  9999
2 32395  65.1034 305.1019 0015477   8.2102 195.9460  2.13104225 73036
COSMOS 2443 (725)       
1 33379U 08046B   17137.50938083 -.00000017  00000-0  00000-0 0  9997
2 33379  65.4264  66.0493 0011265 183.3205 268.3164  2.13099610 67261
COSMOS 2456 (730)       
1 36111U 09070A   17137.66894490  .00000056  00000-0  00000-0 0  9994
2 36111  64.1786 184.6213 0005705 302.0390  71.6798  2.13102897 57772
COSMOS 2457 (733)       
1 36112U 09070B   17137.53155797  .00000055  00000-0  00000-0 0  9990
2 36112  64.1611 184.5448 0006299 184.3125 212.7072  2.13101554 57777
COSMOS 2458 (734)       
1 36113U 09070C   17137.47594420  .00000054  00000-0  10000-3 0  9997
2 36113  64.1662 184.5554 0002092 310.3063  92.0033  2.13102121 57778
COSMOS 2459 (731)       
1 36400U 10007A   17137.73278285 -.00000018  00000-0  10000-3 0  9996
2 36400  65.4067  65.7645 0029624 351.2610 233.0339  2.13102223 56120
COSMOS 2461 (735)       
1 36401U 10007B   17137.47683023 -.00000018  00000-0  10000-3 0  9998
2 36401  65.3995  65.7524 0006786  48.6044 249.9321  2.13102290 56118
COSMOS 2460 (732)       
1 36402U 10007C   17137.64552738 -.00000018  00000-0  10000-3 0  9996
2 36402  65.3895  65.7185 0002352 339.1618 130.1334  2.13101696 56126
COSMOS 2465 (737)       
1 37138U 10041B   17137.60738862  .00000004  00000-0  00000-0 0  9991
2 37138  64.6927 305.0584 0035391 168.8789  31.3104  2.13104217 52191
COSMOS 2464 (736)       
1 37139U 10041C   17137.63709354  .00000004  00000-0  00000-0 0  9999
2 37139  64.6984 305.0576 0023948  17.3011  28.7360  2.13102582 52194
COSMOS 2471 (701K)      
1 37372U 11009A   17137.68960453 -.00000018  00000-0  00000-0 0  9993
2 37372  65.3883  65.6654 0007853 245.8004  32.8103  2.13107578 48390
COSMOS 2474 (742)       
1 37829U 11055A   17137.50656535  .00000054  00000-0  00000-0 0  9994
2 37829  64.5026 185.1779 0010002 252.7366 216.3398  2.13101925 43762
COSMOS 2476 (744)       
1 37867U 11064A   17137.67462340  .00000055  00000-0  00000-0 0  9994
2 37867  64.4825 185.2444 0019166 245.9528  37.9866  2.13102003 43118
COSMOS 2477 (745)       
1 37868U 11064B   17137.64666186  .00000055  00000-0  00000-0 0  9996
2 37868  64.4913 185.2898 0016973 247.3778 194.2429  2.13101779 43072
COSMOS 2475 (743)       
1 37869U 11064C   17137.70934537  .00000055  00000-0  00000-0 0  9992
2 37869  64.4989 185.2792 0022057 271.4437 174.6386  2.13101934 43087
COSMOS 2485 (747)       
1 39155U 13019A   17137.72567456  .00000056  00000-0  00000-0 0  9999
2 39155  64.6520 185.2651 0019465 241.1510 126.9814  2.13101998 31598
COSMOS 2492 (754)       
1 39620U 14012A   17137.43881271 -.00000018  00000-0  10000-3 0  9995
2 39620  65.2789  65.6671 0017104 331.9741 210.1828  2.13103421 24534
COSMOS 2500 (755)       
1 40001U 14032A   17137.39160336 -.00000018  00000-0  00000-0 0  9995
2 40001  65.2190  65.6689 0004914 228.8719 140.1590  2.13102826 22756
COSMOS 2501 (702K)      
1 40315U 14075A   17137.47211337  .00000002  00000-0  00000-0 0  9999
2 40315  64.4257 306.4155 0014032 204.1621  33.0902  2.13098484 19155
COSMOS 2514 (751)       
1 41330U 16008A   17137.38633722 -.00000018  00000-0  00000-0 0  9999
2 41330  65.0207  65.8200 0008347 229.9887 314.9187  2.13103420  9919
COSMOS 2516 (753)       
1 41554U 16032A   17137.68996344  .00000004  00000-0  00000-0 0  9993
2 41554  64.6472 306.1641 0010011 214.3861  96.2141  2.13101526  7527
